{"type":"FeatureCollection","features":[{"type":"Feature","properties":{"scalerank":1,"featurecla":"Admin-0 country","labelrank":5,"sovereignt":"Bosnia and Herzegovina","sov_a3":"BIH","adm0_dif":0,"level":2,"type":"Sovereign country","admin":"Bosnia and Herzegovina","adm0_a3":"BIH","geou_dif":0,"geounit":"Bosnia and Herzegovina","gu_a3":"BIH","su_dif":0,"subunit":"Bosnia and Herzegovina","su_a3":"BIH","brk_diff":0,"name":"Bosnia and Herz.","name_long":"Bosnia and Herzegovina","brk_a3":"BIH","brk_name":"Bosnia and Herz.","brk_group":null,"abbrev":"B.H.","postal":"BiH","formal_en":"Bosnia and Herzegovina","formal_fr":null,"note_adm0":null,"note_brk":null,"name_sort":"Bosnia and Herzegovina","name_alt":null,"mapcolor7":1,"mapcolor8":1,"mapcolor9":1,"mapcolor13":2,"pop_est":4613414,"gdp_md_est":29700,"pop_year":-99,"lastcensus":1991,"gdp_year":-99,"economy":"6. Developing region","income_grp":"3. Upper middle income","wikipedia":-99,"fips_10":null,"iso_a2":"BA","iso_a3":"BIH","iso_n3":"070","un_a3":"070","wb_a2":"BA","wb_a3":"BIH","woe_id":-99,"adm0_a3_is":"BIH","adm0_a3_us":"BIH","adm0_a3_un":-99,"adm0_a3_wb":-99,"continent":"Europe","region_un":"Europe","subregion":"Southern Europe","region_wb":"Europe & Central Asia","name_len":16,"long_len":22,"abbrev_len":4,"tiny":-99,"homepart":1,"filename":"BIH.geojson"},"geometry":{"type":"Polygon","coordinates":[[[19.005486,44.860234],[19.36803,44.863],[19.11761,44.42307],[19.59976,44.03847],[19.454,43.5681],[19.21852,43.52384],[19.03165,43.43253],[18.70648,43.20011],[18.56,42.65],[17.674922,43.028563],[17.297373,43.446341],[16.916156,43.667722],[16.456443,44.04124],[16.23966,44.351143],[15.750026,44.818712],[15.959367,45.233777],[16.318157,45.004127],[16.534939,45.211608],[17.002146,45.233777],[17.861783,45.06774],[18.553214,45.08159],[19.005486,44.860234]]]}},{"type":"Feature","properties":{"scalerank":1,"featurecla":"Admin-0 country","labelrank":4,"sovereignt":"Bulgaria","sov_a3":"BGR","adm0_dif":0,"level":2,"type":"Sovereign country","admin":"Bulgaria","adm0_a3":"BGR","geou_dif":0,"geounit":"Bulgaria","gu_a3":"BGR","su_dif":0,"subunit":"Bulgaria","su_a3":"BGR","brk_diff":0,"name":"Bulgaria","name_long":"Bulgaria","brk_a3":"BGR","brk_name":"Bulgaria","brk_group":null,"abbrev":"Bulg.","postal":"BG","formal_en":"Republic of Bulgaria","formal_fr":null,"note_adm0":null,"note_brk":null,"name_sort":"Bulgaria","name_alt":null,"mapcolor7":4,"mapcolor8":5,"mapcolor9":1,"mapcolor13":8,"pop_est":7204687,"gdp_md_est":93750,"pop_year":-99,"lastcensus":2011,"gdp_year":-99,"economy":"2. Developed region: nonG7","income_grp":"3. Upper middle income","wikipedia":-99,"fips_10":null,"iso_a2":"BG","iso_a3":"BGR","iso_n3":100,"un_a3":100,"wb_a2":"BG","wb_a3":"BGR","woe_id":-99,"adm0_a3_is":"BGR","adm0_a3_us":"BGR","adm0_a3_un":-99,"adm0_a3_wb":-99,"continent":"Europe","region_un":"Europe","subregion":"Eastern Europe","region_wb":"Europe & Central Asia","name_len":8,"long_len":8,"abbrev_len":5,"tiny":-99,"homepart":1,"filename":"BGR.geojson"},"geometry":{"type":"Polygon","coordinates":[[[22.65715,44.234923],[22.944832,43.823785],[23.332302,43.897011],[24.100679,43.741051],[25.569272,43.688445],[26.065159,43.943494],[27.2424,44.175986],[27.970107,43.812468],[28.558081,43.707462],[28.039095,43.293172],[27.673898,42.577892],[27.99672,42.007359],[27.135739,42.141485],[26.117042,41.826905],[26.106138,41.328899],[25.197201,41.234486],[24.492645,41.583896],[23.692074,41.309081],[22.952377,41.337994],[22.881374,41.999297],[22.380526,42.32026],[22.545012,42.461362],[22.436595,42.580321],[22.604801,42.898519],[22.986019,43.211161],[22.500157,43.642814],[22.410446,44.008063],[22.65715,44.234923]]]}},{"type":"Feature","properties":{"scalerank":1,"featurecla":"Admin-0 country","labelrank":6,"sovereignt":"Albania","sov_a3":"ALB","adm0_dif":0,"level":2,"type":"Sovereign country","admin":"Albania","adm0_a3":"ALB","geou_dif":0,"geounit":"Albania","gu_a3":"ALB","su_dif":0,"subunit":"Albania","su_a3":"ALB","brk_diff":0,"name":"Albania","name_long":"Albania","brk_a3":"ALB","brk_name":"Albania","brk_group":null,"abbrev":"Alb.","postal":"AL","formal_en":"Republic of Albania","formal_fr":null,"note_adm0":null,"note_brk":null,"name_sort":"Albania","name_alt":null,"mapcolor7":1,"mapcolor8":4,"mapcolor9":1,"mapcolor13":6,"pop_est":3639453,"gdp_md_est":21810,"pop_year":-99,"lastcensus":2001,"gdp_year":-99,"economy":"6. Developing region","income_grp":"4. Lower middle income","wikipedia":-99,"fips_10":null,"iso_a2":"AL","iso_a3":"ALB","iso_n3":"008","un_a3":"008","wb_a2":"AL","wb_a3":"ALB","woe_id":-99,"adm0_a3_is":"ALB","adm0_a3_us":"ALB","adm0_a3_un":-99,"adm0_a3_wb":-99,"continent":"Europe","region_un":"Europe","subregion":"Southern Europe","region_wb":"Europe & Central Asia","name_len":7,"long_len":7,"abbrev_len":4,"tiny":-99,"homepart":1,"filename":"ALB.geojson"},"geometry":{"type":"Polygon","coordinates":[[[20.590247,41.855404],[20.463175,41.515089],[20.605182,41.086226],[21.02004,40.842727],[20.99999,40.580004],[20.674997,40.435],[20.615,40.110007],[20.150016,39.624998],[19.98,39.694993],[19.960002,39.915006],[19.406082,40.250773],[19.319059,40.72723],[19.40355,41.409566],[19.540027,41.719986],[19.371769,41.877548],[19.304486,42.195745],[19.738051,42.688247],[19.801613,42.500093],[20.0707,42.58863],[20.283755,42.32026],[20.52295,42.21787],[20.590247,41.855404]]]}},{"type":"Feature","properties":{"scalerank":1,"featurecla":"Admin-0 country","labelrank":4,"sovereignt":"Austria","sov_a3":"AUT","adm0_dif":0,"level":2,"type":"Sovereign country","admin":"Austria","adm0_a3":"AUT","geou_dif":0,"geounit":"Austria","gu_a3":"AUT","su_dif":0,"subunit":"Austria","su_a3":"AUT","brk_diff":0,"name":"Austria","name_long":"Austria","brk_a3":"AUT","brk_name":"Austria","brk_group":null,"abbrev":"Aust.","postal":"A","formal_en":"Republic of Austria","formal_fr":null,"note_adm0":null,"note_brk":null,"name_sort":"Austria","name_alt":null,"mapcolor7":3,"mapcolor8":1,"mapcolor9":3,"mapcolor13":4,"pop_est":8210281,"gdp_md_est":329500,"pop_year":-99,"lastcensus":2011,"gdp_year":-99,"economy":"2. Developed region: nonG7","income_grp":"1. High income: OECD","wikipedia":-99,"fips_10":null,"iso_a2":"AT","iso_a3":"AUT","iso_n3":"040","un_a3":"040","wb_a2":"AT","wb_a3":"AUT","woe_id":-99,"adm0_a3_is":"AUT","adm0_a3_us":"AUT","adm0_a3_un":-99,"adm0_a3_wb":-99,"continent":"Europe","region_un":"Europe","subregion":"Western Europe","region_wb":"Europe & Central Asia","name_len":7,"long_len":7,"abbrev_len":5,"tiny":-99,"homepart":1,"filename":"AUT.geojson"},"geometry":{"type":"Polygon","coordinates":[[[16.979667,48.123497],[16.903754,47.714866],[16.340584,47.712902],[16.534268,47.496171],[16.202298,46.852386],[16.011664,46.683611],[15.137092,46.658703],[14.632472,46.431817],[13.806475,46.509306],[12.376485,46.767559],[12.153088,47.115393],[11.164828,46.941579],[11.048556,46.751359],[10.442701,46.893546],[9.932448,46.920728],[9.47997,47.10281],[9.632932,47.347601],[9.594226,47.525058],[9.896068,47.580197],[10.402084,47.302488],[10.544504,47.566399],[11.426414,47.523766],[12.141357,47.703083],[12.62076,47.672388],[12.932627,47.467646],[13.025851,47.637584],[12.884103,48.289146],[13.243357,48.416115],[13.595946,48.877172],[14.338898,48.555305],[14.901447,48.964402],[15.253416,49.039074],[16.029647,48.733899],[16.499283,48.785808],[16.960288,48.596982],[16.879983,48.470013],[16.979667,48.123497]]]}},{"type":"Feature","properties":{"scalerank":1,"featurecla":"Admin-0 country","labelrank":4,"sovereignt":"Switzerland","sov_a3":"CHE","adm0_dif":0,"level":2,"type":"Sovereign country","admin":"Switzerland","adm0_a3":"CHE","geou_dif":0,"geounit":"Switzerland","gu_a3":"CHE","su_dif":0,"subunit":"Switzerland","su_a3":"CHE","brk_diff":0,"name":"Switzerland","name_long":"Switzerland","brk_a3":"CHE","brk_name":"Switzerland","brk_group":null,"abbrev":"Switz.","postal":"CH","formal_en":"Swiss Confederation","formal_fr":null,"note_adm0":null,"note_brk":null,"name_sort":"Switzerland","name_alt":null,"mapcolor7":5,"mapcolor8":2,"mapcolor9":7,"mapcolor13":3,"pop_est":7604467,"gdp_md_est":316700,"pop_year":-99,"lastcensus":2010,"gdp_year":-99,"economy":"2. Developed region: nonG7","income_grp":"1. High income: OECD","wikipedia":-99,"fips_10":null,"iso_a2":"CH","iso_a3":"CHE","iso_n3":756,"un_a3":756,"wb_a2":"CH","wb_a3":"CHE","woe_id":-99,"adm0_a3_is":"CHE","adm0_a3_us":"CHE","adm0_a3_un":-99,"adm0_a3_wb":-99,"continent":"Europe","region_un":"Europe","subregion":"Western Europe","region_wb":"Europe & Central Asia","name_len":11,"long_len":11,"abbrev_len":6,"tiny":-99,"homepart":1,"filename":"CHE.geojson"},"geometry":{"type":"Polygon","coordinates":[[[9.594226,47.525058],[9.632932,47.347601],[9.47997,47.10281],[9.932448,46.920728],[10.442701,46.893546],[10.363378,46.483571],[9.922837,46.314899],[9.182882,46.440215],[8.966306,46.036932],[8.489952,46.005151],[8.31663,46.163642],[7.755992,45.82449],[7.273851,45.776948],[6.843593,45.991147],[6.5001,46.429673],[6.022609,46.27299],[6.037389,46.725779],[6.768714,47.287708],[6.736571,47.541801],[7.192202,47.449766],[7.466759,47.620582],[8.317301,47.61358],[8.522612,47.830828],[9.594226,47.525058]]]}},{"type":"Feature","properties":{"scalerank":1,"featurecla":"Admin-0 country","labelrank":5,"sovereignt":"Czech Republic","sov_a3":"CZE","adm0_dif":0,"level":2,"type":"Sovereign country","admin":"Czech Republic","adm0_a3":"CZE","geou_dif":0,"geounit":"Czech Republic","gu_a3":"CZE","su_dif":0,"subunit":"Czech Republic","su_a3":"CZE","brk_diff":0,"name":"Czech Rep.","name_long":"Czech Republic","brk_a3":"CZE","brk_name":"Czech Rep.","brk_group":null,"abbrev":"Cz. Rep.","postal":"CZ","formal_en":"Czech Republic","formal_fr":null,"note_adm0":null,"note_brk":null,"name_sort":"Czech Republic","name_alt":null,"mapcolor7":1,"mapcolor8":1,"mapcolor9":2,"mapcolor13":6,"pop_est":10211904,"gdp_md_est":265200,"pop_year":-99,"lastcensus":2011,"gdp_year":-99,"economy":"2. Developed region: nonG7","income_grp":"1. High income: OECD","wikipedia":-99,"fips_10":null,"iso_a2":"CZ","iso_a3":"CZE","iso_n3":203,"un_a3":203,"wb_a2":"CZ","wb_a3":"CZE","woe_id":-99,"adm0_a3_is":"CZE","adm0_a3_us":"CZE","adm0_a3_un":-99,"adm0_a3_wb":-99,"continent":"Europe","region_un":"Europe","subregion":"Eastern Europe","region_wb":"Europe & Central Asia","name_len":10,"long_len":14,"abbrev_len":8,"tiny":-99,"homepart":1,"filename":"CZE.geojson"},"geometry":{"type":"Polygon","coordinates":[[[16.960288,48.596982],[16.499283,48.785808],[16.029647,48.733899],[15.253416,49.039074],[14.901447,48.964402],[14.338898,48.555305],[13.595946,48.877172],[13.031329,49.307068],[12.521024,49.547415],[12.415191,49.969121],[12.240111,50.266338],[12.966837,50.484076],[13.338132,50.733234],[14.056228,50.926918],[14.307013,51.117268],[14.570718,51.002339],[15.016996,51.106674],[15.490972,50.78473],[16.238627,50.697733],[16.176253,50.422607],[16.719476,50.215747],[16.868769,50.473974],[17.554567,50.362146],[17.649445,50.049038],[18.392914,49.988629],[18.853144,49.49623],[18.554971,49.495015],[18.399994,49.315001],[18.170498,49.271515],[18.104973,49.043983],[17.913512,48.996493],[17.886485,48.903475],[17.545007,48.800019],[17.101985,48.816969],[16.960288,48.596982]]]}},{"type":"Feature","properties":{"scalerank":1,"featurecla":"Admin-0 country","labelrank":2,"sovereignt":"Belgium","sov_a3":"BEL","adm0_dif":0,"level":2,"type":"Sovereign country","admin":"Belgium","adm0_a3":"BEL","geou_dif":0,"geounit":"Belgium","gu_a3":"BEL","su_dif":0,"subunit":"Belgium","su_a3":"BEL","brk_diff":0,"name":"Belgium","name_long":"Belgium","brk_a3":"BEL","brk_name":"Belgium","brk_group":null,"abbrev":"Belg.","postal":"B","formal_en":"Kingdom of Belgium","formal_fr":null,"note_adm0":null,"note_brk":null,"name_sort":"Belgium","name_alt":null,"mapcolor7":3,"mapcolor8":2,"mapcolor9":1,"mapcolor13":8,"pop_est":10414336,"gdp_md_est":389300,"pop_year":-99,"lastcensus":2011,"gdp_year":-99,"economy":"2. Developed region: nonG7","income_grp":"1. High income: OECD","wikipedia":-99,"fips_10":null,"iso_a2":"BE","iso_a3":"BEL","iso_n3":"056","un_a3":"056","wb_a2":"BE","wb_a3":"BEL","woe_id":-99,"adm0_a3_is":"BEL","adm0_a3_us":"BEL","adm0_a3_un":-99,"adm0_a3_wb":-99,"continent":"Europe","region_un":"Europe","subregion":"Western Europe","region_wb":"Europe & Central Asia","name_len":7,"long_len":7,"abbrev_len":5,"tiny":-99,"homepart":1,"filename":"BEL.geojson"},"geometry":{"type":"Polygon","coordinates":[[[3.314971,51.345781],[4.047071,51.267259],[4.973991,51.475024],[5.606976,51.037298],[6.156658,50.803721],[6.043073,50.128052],[5.782417,50.090328],[5.674052,49.529484],[4.799222,49.985373],[4.286023,49.907497],[3.588184,50.378992],[3.123252,50.780363],[2.658422,50.796848],[2.513573,51.148506],[3.314971,51.345781]]]}},{"type":"Feature","properties":{"scalerank":1,"featurecla":"Admin-0 country","labelrank":2,"sovereignt":"Germany","sov_a3":"DEU","adm0_dif":0,"level":2,"type":"Sovereign country","admin":"Germany","adm0_a3":"DEU","geou_dif":0,"geounit":"Germany","gu_a3":"DEU","su_dif":0,"subunit":"Germany","su_a3":"DEU","brk_diff":0,"name":"Germany","name_long":"Germany","brk_a3":"DEU","brk_name":"Germany","brk_group":null,"abbrev":"Ger.","postal":"D","formal_en":"Federal Republic of Germany","formal_fr":null,"note_adm0":null,"note_brk":null,"name_sort":"Germany","name_alt":null,"mapcolor7":2,"mapcolor8":5,"mapcolor9":5,"mapcolor13":1,"pop_est":82329758,"gdp_md_est":2918000,"pop_year":-99,"lastcensus":2011,"gdp_year":-99,"economy":"1. Developed region: G7","income_grp":"1. High income: OECD","wikipedia":-99,"fips_10":null,"iso_a2":"DE","iso_a3":"DEU","iso_n3":276,"un_a3":276,"wb_a2":"DE","wb_a3":"DEU","woe_id":-99,"adm0_a3_is":"DEU","adm0_a3_us":"DEU","adm0_a3_un":-99,"adm0_a3_wb":-99,"continent":"Europe","region_un":"Europe","subregion":"Western Europe","region_wb":"Europe & Central Asia","name_len":7,"long_len":7,"abbrev_len":4,"tiny":-99,"homepart":1,"filename":"DEU.geojson"},"geometry":{"type":"Polygon","coordinates":[[[9.921906,54.983104],[9.93958,54.596642],[10.950112,54.363607],[10.939467,54.008693],[11.956252,54.196486],[12.51844,54.470371],[13.647467,54.075511],[14.119686,53.757029],[14.353315,53.248171],[14.074521,52.981263],[14.4376,52.62485],[14.685026,52.089947],[14.607098,51.745188],[15.016996,51.106674],[14.570718,51.002339],[14.307013,51.117268],[14.056228,50.926918],[13.338132,50.733234],[12.966837,50.484076],[12.240111,50.266338],[12.415191,49.969121],[12.521024,49.547415],[13.031329,49.307068],[13.595946,48.877172],[13.243357,48.416115],[12.884103,48.289146],[13.025851,47.637584],[12.932627,47.467646],[12.62076,47.672388],[12.141357,47.703083],[11.426414,47.523766],[10.544504,47.566399],[10.402084,47.302488],[9.896068,47.580197],[9.594226,47.525058],[8.522612,47.830828],[8.317301,47.61358],[7.466759,47.620582],[7.593676,48.333019],[8.099279,49.017784],[6.65823,49.201958],[6.18632,49.463803],[6.242751,49.902226],[6.043073,50.128052],[6.156658,50.803721],[5.988658,51.851616],[6.589397,51.852029],[6.84287,52.22844],[7.092053,53.144043],[6.90514,53.482162],[7.100425,53.693932],[7.936239,53.748296],[8.121706,53.527792],[8.800734,54.020786],[8.572118,54.395646],[8.526229,54.962744],[9.282049,54.830865],[9.921906,54.983104]]]}},{"type":"Feature","properties":{"scalerank":1,"featurecla":"Admin-0 country","labelrank":4,"sovereignt":"Denmark","sov_a3":"DN1","adm0_dif":1,"level":2,"type":"Country","admin":"Denmark","adm0_a3":"DNK","geou_dif":0,"geounit":"Denmark","gu_a3":"DNK","su_dif":0,"subunit":"Denmark","su_a3":"DNK","brk_diff":0,"name":"Denmark","name_long":"Denmark","brk_a3":"DNK","brk_name":"Denmark","brk_group":null,"abbrev":"Den.","postal":"DK","formal_en":"Kingdom of Denmark","formal_fr":null,"note_adm0":null,"note_brk":null,"name_sort":"Denmark","name_alt":null,"mapcolor7":4,"mapcolor8":1,"mapcolor9":3,"mapcolor13":12,"pop_est":5500510,"gdp_md_est":203600,"pop_year":-99,"lastcensus":2011,"gdp_year":-99,"economy":"2. Developed region: nonG7","income_grp":"1. High income: OECD","wikipedia":-99,"fips_10":null,"iso_a2":"DK","iso_a3":"DNK","iso_n3":208,"un_a3":208,"wb_a2":"DK","wb_a3":"DNK","woe_id":-99,"adm0_a3_is":"DNK","adm0_a3_us":"DNK","adm0_a3_un":-99,"adm0_a3_wb":-99,"continent":"Europe","region_un":"Europe","subregion":"Northern Europe","region_wb":"Europe & Central Asia","name_len":7,"long_len":7,"abbrev_len":4,"tiny":-99,"homepart":1,"filename":"DNK.geojson"},"geometry":{"type":"MultiPolygon","coordinates":[[[[12.690006,55.609991],[12.089991,54.800015],[11.043543,55.364864],[10.903914,55.779955],[12.370904,56.111407],[12.690006,55.609991]]],[[[10.912182,56.458621],[10.667804,56.081383],[10.369993,56.190007],[9.649985,55.469999],[9.921906,54.983104],[9.282049,54.830865],[8.526229,54.962744],[8.120311,55.517723],[8.089977,56.540012],[8.256582,56.809969],[8.543438,57.110003],[9.424469,57.172066],[9.775559,57.447941],[10.580006,57.730017],[10.546106,57.215733],[10.25,56.890016],[10.369993,56.609982],[10.912182,56.458621]]]]}},{"type":"Feature","properties":{"scalerank":1,"featurecla":"Admin-0 country","labelrank":2,"sovereignt":"Spain","sov_a3":"ESP","adm0_dif":0,"level":2,"type":"Sovereign country","admin":"Spain","adm0_a3":"ESP","geou_dif":0,"geounit":"Spain","gu_a3":"ESP","su_dif":0,"subunit":"Spain","su_a3":"ESP","brk_diff":0,"name":"Spain","name_long":"Spain","brk_a3":"ESP","brk_name":"Spain","brk_group":null,"abbrev":"Sp.","postal":"E","formal_en":"Kingdom of Spain","formal_fr":null,"note_adm0":null,"note_brk":null,"name_sort":"Spain","name_alt":null,"mapcolor7":4,"mapcolor8":5,"mapcolor9":5,"mapcolor13":5,"pop_est":40525002,"gdp_md_est":1403000,"pop_year":-99,"lastcensus":2001,"gdp_year":-99,"economy":"2. Developed region: nonG7","income_grp":"1. High income: OECD","wikipedia":-99,"fips_10":null,"iso_a2":"ES","iso_a3":"ESP","iso_n3":724,"un_a3":724,"wb_a2":"ES","wb_a3":"ESP","woe_id":-99,"adm0_a3_is":"ESP","adm0_a3_us":"ESP","adm0_a3_un":-99,"adm0_a3_wb":-99,"continent":"Europe","region_un":"Europe","subregion":"Southern Europe","region_wb":"Europe & Central Asia","name_len":5,"long_len":5,"abbrev_len":3,"tiny":-99,"homepart":1,"filename":"ESP.geojson"},"geometry":{"type":"Polygon","coordinates":[[[350.965182,41.880571],[351.015567,42.592775],[350.607116,43.026625],[352.02181,43.748338],[353.245508,43.567909],[354.588114,43.57424],[355.652157,43.403449],[356.482468,43.455901],[358.098649,43.422802],[358.497229,43.034014],[0.338047,42.579546],[0.701591,42.795734],[1.826793,42.343385],[2.985999,42.473015],[3.039484,41.89212],[2.091842,41.226089],[0.810525,41.014732],[0.721331,40.678318],[0.106692,40.123934],[359.721289,39.309978],[0.111291,38.738514],[359.532876,38.292366],[359.316611,37.642354],[358.561618,37.443064],[357.853547,36.674144],[356.584219,36.6589],[355.631099,36.677839],[355.004781,36.324708],[354.62284,35.94685],[354.133568,36.029817],[353.763306,36.367677],[353.479809,36.942913],[352.546274,37.097788],[352.462895,37.428904],[352.833492,37.803894],[352.970719,38.075764],[352.625908,38.373059],[352.901963,39.030073],[352.501368,39.629571],[352.933408,39.711892],[352.973587,40.184524],[353.13598,40.330872],[353.148873,41.111083],[353.610912,41.381815],[353.331394,41.883387],[352.748691,41.918346],[352.577487,41.792075],[351.986825,41.790886],[351.736143,42.280469],[351.328054,42.134689],[350.965182,41.880571]]]}},{"type":"Feature","properties":{"scalerank":1,"featurecla":"Admin-0 country","labelrank":6,"sovereignt":"Estonia","sov_a3":"EST","adm0_dif":0,"level":2,"type":"Sovereign country","admin":"Estonia","adm0_a3":"EST","geou_dif":0,"geounit":"Estonia","gu_a3":"EST","su_dif":0,"subunit":"Estonia","su_a3":"EST","brk_diff":0,"name":"Estonia","name_long":"Estonia","brk_a3":"EST","brk_name":"Estonia","brk_group":null,"abbrev":"Est.","postal":"EST","formal_en":"Republic of Estonia","formal_fr":null,"note_adm0":null,"note_brk":null,"name_sort":"Estonia","name_alt":null,"mapcolor7":3,"mapcolor8":2,"mapcolor9":1,"mapcolor13":10,"pop_est":1299371,"gdp_md_est":27410,"pop_year":-99,"lastcensus":2000,"gdp_year":-99,"economy":"2. Developed region: nonG7","income_grp":"1. High income: OECD","wikipedia":-99,"fips_10":null,"iso_a2":"EE","iso_a3":"EST","iso_n3":233,"un_a3":233,"wb_a2":"EE","wb_a3":"EST","woe_id":-99,"adm0_a3_is":"EST","adm0_a3_us":"EST","adm0_a3_un":-99,"adm0_a3_wb":-99,"continent":"Europe","region_un":"Europe","subregion":"Northern Europe","region_wb":"Europe & Central Asia","name_len":7,"long_len":7,"abbrev_len":4,"tiny":-99,"homepart":1,"filename":"EST.geojson"},"geometry":{"type":"Polygon","coordinates":[[[24.312863,57.793424],[24.428928,58.383413],[24.061198,58.257375],[23.42656,58.612753],[23.339795,59.18724],[24.604214,59.465854],[25.864189,59.61109],[26.949136,59.445803],[27.981114,59.475388],[28.131699,59.300825],[27.420166,58.724581],[27.716686,57.791899],[27.288185,57.474528],[26.463532,57.476389],[25.60281,57.847529],[25.164594,57.970157],[24.312863,57.793424]]]}},{"type":"Feature","properties":{"scalerank":1,"featurecla":"Admin-0 country","labelrank":2,"sovereignt":"France","sov_a3":"FR1","adm0_dif":1,"level":2,"type":"Country","admin":"France","adm0_a3":"FRA","geou_dif":0,"geounit":"France","gu_a3":"FRA","su_dif":0,"subunit":"France","su_a3":"FRA","brk_diff":0,"name":"France","name_long":"France","brk_a3":"FRA","brk_name":"France","brk_group":null,"abbrev":"Fr.","postal":"F","formal_en":"French Republic","formal_fr":null,"note_adm0":null,"note_brk":null,"name_sort":"France","name_alt":null,"mapcolor7":7,"mapcolor8":5,"mapcolor9":9,"mapcolor13":11,"pop_est":64057792,"gdp_md_est":2128000,"pop_year":-99,"lastcensus":-99,"gdp_year":-99,"economy":"1. Developed region: G7","income_grp":"1. High income: OECD","wikipedia":-99,"fips_10":null,"iso_a2":"FR","iso_a3":"FRA","iso_n3":250,"un_a3":250,"wb_a2":"FR","wb_a3":"FRA","woe_id":-99,"adm0_a3_is":"FRA","adm0_a3_us":"FRA","adm0_a3_un":-99,"adm0_a3_wb":-99,"continent":"Europe","region_un":"Europe","subregion":"Western Europe","region_wb":"Europe & Central Asia","name_len":6,"long_len":6,"abbrev_len":3,"tiny":-99,"homepart":1,"filename":"FRA.geojson"},"geometry":{"type":"MultiPolygon","coordinates":[[[[307.443575,2.504705],[307.060343,2.124858],[306.581535,2.053389],[306.445161,2.334897],[306.221479,2.376703],[305.911937,2.105557],[305.475246,2.311849],[305.72877,2.738748],[305.815716,3.194172],[305.988496,3.62257],[305.600458,4.212611],[305.521367,4.896756],[306.041955,5.756548],[306.381547,5.646529],[307.117859,5.409851],[308.176657,4.565768],[308.342203,4.156232],[307.750662,3.241094],[307.443575,2.504705]]],[[[9.560016,42.152492],[9.229752,41.380007],[8.775723,41.583612],[8.544213,42.256517],[8.746009,42.628122],[9.390001,43.009985],[9.560016,42.152492]]],[[[3.588184,50.378992],[4.286023,49.907497],[4.799222,49.985373],[5.674052,49.529484],[5.897759,49.442667],[6.18632,49.463803],[6.65823,49.201958],[8.099279,49.017784],[7.593676,48.333019],[7.466759,47.620582],[7.192202,47.449766],[6.736571,47.541801],[6.768714,47.287708],[6.037389,46.725779],[6.022609,46.27299],[6.5001,46.429673],[6.843593,45.991147],[6.802355,45.70858],[7.096652,45.333099],[6.749955,45.028518],[7.007562,44.254767],[7.549596,44.127901],[7.435185,43.693845],[6.529245,43.128892],[4.556963,43.399651],[3.100411,43.075201],[2.985999,42.473015],[1.826793,42.343385],[0.701591,42.795734],[0.338047,42.579546],[358.497229,43.034014],[358.098649,43.422802],[358.615775,44.02261],[358.806202,46.014918],[357.774276,47.064363],[357.036724,47.570327],[355.508445,47.954954],[355.40765,48.68416],[356.704186,48.901692],[358.383489,48.644421],[358.066506,49.776342],[359.010531,49.347376],[1.338761,50.127173],[1.639001,50.946606],[2.513573,51.148506],[2.658422,50.796848],[3.123252,50.780363],[3.588184,50.378992]]]]}},{"type":"Feature","properties":{"scalerank":1,"featurecla":"Admin-0 country","labelrank":2,"sovereignt":"United Kingdom","sov_a3":"GB1","adm0_dif":1,"level":2,"type":"Country","admin":"United Kingdom","adm0_a3":"GBR","geou_dif":0,"geounit":"United Kingdom","gu_a3":"GBR","su_dif":0,"subunit":"United Kingdom","su_a3":"GBR","brk_diff":0,"name":"United Kingdom","name_long":"United Kingdom","brk_a3":"GBR","brk_name":"United Kingdom","brk_group":null,"abbrev":"U.K.","postal":"GB","formal_en":"United Kingdom of Great Britain and Northern Ireland","formal_fr":null,"note_adm0":null,"note_brk":null,"name_sort":"United Kingdom","name_alt":null,"mapcolor7":6,"mapcolor8":6,"mapcolor9":6,"mapcolor13":3,"pop_est":62262000,"gdp_md_est":1977704,"pop_year":0,"lastcensus":2011,"gdp_year":2009,"economy":"1. Developed region: G7","income_grp":"1. High income: OECD","wikipedia":-99,"fips_10":null,"iso_a2":"GB","iso_a3":"GBR","iso_n3":826,"un_a3":826,"wb_a2":"GB","wb_a3":"GBR","woe_id":-99,"adm0_a3_is":"GBR","adm0_a3_us":"GBR","adm0_a3_un":-99,"adm0_a3_wb":-99,"continent":"Europe","region_un":"Europe","subregion":"Northern Europe","region_wb":"Europe & Central Asia","name_len":14,"long_len":14,"abbrev_len":4,"tiny":-99,"homepart":1,"filename":"GBR.geojson"},"geometry":{"type":"MultiPolygon","coordinates":[[[[354.338051,54.554603],[353.802115,53.867565],[353.04627,54.073702],[352.427832,54.059956],[352.633969,54.595841],[352.427832,55.131622],[353.266153,55.17286],[354.338051,54.554603]]],[[[356.994995,58.635],[355.926172,57.553025],[356.944998,57.690019],[358.040719,57.6848],[357.780012,56.870017],[356.880997,55.973793],[357.914991,55.909998],[357.994324,55.804903],[358.885009,54.624986],[359.569515,54.464376],[0.184981,53.325014],[0.469977,52.929999],[1.681531,52.73952],[1.559988,52.099998],[1.050562,51.806761],[1.449865,51.289428],[0.550334,50.765739],[359.212483,50.774989],[357.510002,50.500019],[357.043726,50.69688],[356.382552,50.228356],[355.457492,50.341837],[354.754977,49.96],[354.223433,50.159678],[355.69001,51.210001],[356.585149,51.426009],[356.577281,51.426848],[355.015633,51.593466],[354.732704,51.9914],[355.777653,52.301356],[355.229987,52.840005],[355.420001,53.495004],[356.906169,53.404547],[356.90792,53.404441],[357.054991,53.985],[356.385299,54.600937],[356.369995,54.615013],[355.155831,54.790971],[354.917473,55.061601],[355.280888,55.508473],[354.952019,55.783986],[354.413602,55.311146],[354.355001,56.275015],[353.850019,56.78501],[354.213175,57.818848],[354.990001,58.630013],[355.788505,58.550845],[356.994995,58.635]]]]}},{"type":"Feature","properties":{"scalerank":1,"featurecla":"Admin-0 country","labelrank":3,"sovereignt":"Finland","sov_a3":"FI1","adm0_dif":1,"level":2,"type":"Country","admin":"Finland","adm0_a3":"FIN","geou_dif":0,"geounit":"Finland","gu_a3":"FIN","su_dif":0,"subunit":"Finland","su_a3":"FIN","brk_diff":0,"name":"Finland","name_long":"Finland","brk_a3":"FIN","brk_name":"Finland","brk_group":null,"abbrev":"Fin.","postal":"FIN","formal_en":"Republic of Finland","formal_fr":null,"note_adm0":null,"note_brk":null,"name_sort":"Finland","name_alt":null,"mapcolor7":4,"mapcolor8":1,"mapcolor9":4,"mapcolor13":6,"pop_est":5250275,"gdp_md_est":193500,"pop_year":-99,"lastcensus":2010,"gdp_year":-99,"economy":"2. Developed region: nonG7","income_grp":"1. High income: OECD","wikipedia":-99,"fips_10":null,"iso_a2":"FI","iso_a3":"FIN","iso_n3":246,"un_a3":246,"wb_a2":"FI","wb_a3":"FIN","woe_id":-99,"adm0_a3_is":"FIN","adm0_a3_us":"FIN","adm0_a3_un":-99,"adm0_a3_wb":-99,"continent":"Europe","region_un":"Europe","subregion":"Northern Europe","region_wb":"Europe & Central Asia","name_len":7,"long_len":7,"abbrev_len":4,"tiny":-99,"homepart":1,"filename":"FIN.geojson"},"geometry":{"type":"Polygon","coordinates":[[[28.59193,69.064777],[28.445944,68.364613],[29.977426,67.698297],[29.054589,66.944286],[30.21765,65.80598],[29.54443,64.948672],[30.444685,64.204453],[30.035872,63.552814],[31.516092,62.867687],[31.139991,62.357693],[30.211107,61.780028],[28.069998,60.503517],[26.255173,60.423961],[24.496624,60.057316],[22.869695,59.846373],[22.290764,60.391921],[21.322244,60.72017],[21.544866,61.705329],[21.059211,62.607393],[21.536029,63.189735],[22.442744,63.81781],[24.730512,64.902344],[25.398068,65.111427],[25.294043,65.534346],[23.903379,66.006927],[23.56588,66.396051],[23.539473,67.936009],[21.978535,68.616846],[20.645593,69.106247],[21.244936,69.370443],[22.356238,68.841741],[23.66205,68.891247],[24.735679,68.649557],[25.689213,69.092114],[26.179622,69.825299],[27.732292,70.164193],[29.015573,69.766491],[28.59193,69.064777]]]}},{"type":"Feature","properties":{"scalerank":1,"featurecla":"Admin-0 country","labelrank":6,"sovereignt":"Croatia","sov_a3":"HRV","adm0_dif":0,"level":2,"type":"Sovereign country","admin":"Croatia","adm0_a3":"HRV","geou_dif":0,"geounit":"Croatia","gu_a3":"HRV","su_dif":0,"subunit":"Croatia","su_a3":"HRV","brk_diff":0,"name":"Croatia","name_long":"Croatia","brk_a3":"HRV","brk_name":"Croatia","brk_group":null,"abbrev":"Cro.","postal":"HR","formal_en":"Republic of Croatia","formal_fr":null,"note_adm0":null,"note_brk":null,"name_sort":"Croatia","name_alt":null,"mapcolor7":5,"mapcolor8":4,"mapcolor9":5,"mapcolor13":1,"pop_est":4489409,"gdp_md_est":82390,"pop_year":-99,"lastcensus":2011,"gdp_year":-99,"economy":"2. Developed region: nonG7","income_grp":"2. High income: nonOECD","wikipedia":-99,"fips_10":null,"iso_a2":"HR","iso_a3":"HRV","iso_n3":191,"un_a3":191,"wb_a2":"HR","wb_a3":"HRV","woe_id":-99,"adm0_a3_is":"HRV","adm0_a3_us":"HRV","adm0_a3_un":-99,"adm0_a3_wb":-99,"continent":"Europe","region_un":"Europe","subregion":"Southern Europe","region_wb":"Europe & Central Asia","name_len":7,"long_len":7,"abbrev_len":4,"tiny":-99,"homepart":1,"filename":"HRV.geojson"},"geometry":{"type":"Polygon","coordinates":[[[18.829838,45.908878],[19.072769,45.521511],[19.390476,45.236516],[19.005486,44.860234],[18.553214,45.08159],[17.861783,45.06774],[17.002146,45.233777],[16.534939,45.211608],[16.318157,45.004127],[15.959367,45.233777],[15.750026,44.818712],[16.23966,44.351143],[16.456443,44.04124],[16.916156,43.667722],[17.297373,43.446341],[17.674922,43.028563],[18.56,42.65],[18.450016,42.479991],[17.50997,42.849995],[16.930006,43.209998],[16.015385,43.507215],[15.174454,44.243191],[15.37625,44.317915],[14.920309,44.738484],[14.901602,45.07606],[14.258748,45.233777],[13.952255,44.802124],[13.656976,45.136935],[13.679403,45.484149],[13.71506,45.500324],[14.411968,45.466166],[14.595109,45.634941],[14.935244,45.471695],[15.327675,45.452316],[15.323954,45.731783],[15.67153,45.834154],[15.768733,46.238108],[16.564808,46.503751],[16.882515,46.380632],[17.630066,45.951769],[18.456062,45.759481],[18.829838,45.908878]]]}},{"type":"Feature","properties":{"scalerank":1,"featurecla":"Admin-0 country","labelrank":3,"sovereignt":"Greece","sov_a3":"GRC","adm0_dif":0,"level":2,"type":"Sovereign country","admin":"Greece","adm0_a3":"GRC","geou_dif":0,"geounit":"Greece","gu_a3":"GRC","su_dif":0,"subunit":"Greece","su_a3":"GRC","brk_diff":0,"name":"Greece","name_long":"Greece","brk_a3":"GRC","brk_name":"Greece","brk_group":null,"abbrev":"Greece","postal":"GR","formal_en":"Hellenic Republic","formal_fr":null,"note_adm0":null,"note_brk":null,"name_sort":"Greece","name_alt":null,"mapcolor7":2,"mapcolor8":2,"mapcolor9":2,"mapcolor13":9,"pop_est":10737428,"gdp_md_est":343000,"pop_year":-99,"lastcensus":2011,"gdp_year":-99,"economy":"2. Developed region: nonG7","income_grp":"1. High income: OECD","wikipedia":-99,"fips_10":null,"iso_a2":"GR","iso_a3":"GRC","iso_n3":300,"un_a3":300,"wb_a2":"GR","wb_a3":"GRC","woe_id":-99,"adm0_a3_is":"GRC","adm0_a3_us":"GRC","adm0_a3_un":-99,"adm0_a3_wb":-99,"continent":"Europe","region_un":"Europe","subregion":"Southern Europe","region_wb":"Europe & Central Asia","name_len":6,"long_len":6,"abbrev_len":6,"tiny":-99,"homepart":1,"filename":"GRC.geojson"},"geometry":{"type":"MultiPolygon","coordinates":[[[[23.69998,35.705004],[24.246665,35.368022],[25.025015,35.424996],[25.769208,35.354018],[25.745023,35.179998],[26.290003,35.29999],[26.164998,35.004995],[24.724982,34.919988],[24.735007,35.084991],[23.514978,35.279992],[23.69998,35.705004]]],[[[26.604196,41.562115],[26.294602,40.936261],[26.056942,40.824123],[25.447677,40.852545],[24.925848,40.947062],[23.714811,40.687129],[24.407999,40.124993],[23.899968,39.962006],[23.342999,39.960998],[22.813988,40.476005],[22.626299,40.256561],[22.849748,39.659311],[23.350027,39.190011],[22.973099,38.970903],[23.530016,38.510001],[24.025025,38.219993],[24.040011,37.655015],[23.115003,37.920011],[23.409972,37.409991],[22.774972,37.30501],[23.154225,36.422506],[22.490028,36.41],[21.670026,36.844986],[21.295011,37.644989],[21.120034,38.310323],[20.730032,38.769985],[20.217712,39.340235],[20.150016,39.624998],[20.615,40.110007],[20.674997,40.435],[20.99999,40.580004],[21.02004,40.842727],[21.674161,40.931275],[22.055378,41.149866],[22.597308,41.130487],[22.76177,41.3048],[22.952377,41.337994],[23.692074,41.309081],[24.492645,41.583896],[25.197201,41.234486],[26.106138,41.328899],[26.117042,41.826905],[26.604196,41.562115]]]]}},{"type":"Feature","properties":{"scalerank":1,"featurecla":"Admin-0 country","labelrank":5,"sovereignt":"Hungary","sov_a3":"HUN","adm0_dif":0,"level":2,"type":"Sovereign country","admin":"Hungary","adm0_a3":"HUN","geou_dif":0,"geounit":"Hungary","gu_a3":"HUN","su_dif":0,"subunit":"Hungary","su_a3":"HUN","brk_diff":0,"name":"Hungary","name_long":"Hungary","brk_a3":"HUN","brk_name":"Hungary","brk_group":null,"abbrev":"Hun.","postal":"HU","formal_en":"Republic of Hungary","formal_fr":null,"note_adm0":null,"note_brk":null,"name_sort":"Hungary","name_alt":null,"mapcolor7":4,"mapcolor8":6,"mapcolor9":1,"mapcolor13":5,"pop_est":9905596,"gdp_md_est":196600,"pop_year":-99,"lastcensus":2001,"gdp_year":-99,"economy":"2. Developed region: nonG7","income_grp":"1. High income: OECD","wikipedia":-99,"fips_10":null,"iso_a2":"HU","iso_a3":"HUN","iso_n3":348,"un_a3":348,"wb_a2":"HU","wb_a3":"HUN","woe_id":-99,"adm0_a3_is":"HUN","adm0_a3_us":"HUN","adm0_a3_un":-99,"adm0_a3_wb":-99,"continent":"Europe","region_un":"Europe","subregion":"Eastern Europe","region_wb":"Europe & Central Asia","name_len":7,"long_len":7,"abbrev_len":4,"tiny":-99,"homepart":1,"filename":"HUN.geojson"},"geometry":{"type":"Polygon","coordinates":[[[16.202298,46.852386],[16.534268,47.496171],[16.340584,47.712902],[16.903754,47.714866],[16.979667,48.123497],[17.488473,47.867466],[17.857133,47.758429],[18.696513,47.880954],[18.777025,48.081768],[19.174365,48.111379],[19.661364,48.266615],[19.769471,48.202691],[20.239054,48.327567],[20.473562,48.56285],[20.801294,48.623854],[21.872236,48.319971],[22.085608,48.422264],[22.64082,48.15024],[22.710531,47.882194],[22.099768,47.672439],[21.626515,46.994238],[21.021952,46.316088],[20.220192,46.127469],[19.596045,46.17173],[18.829838,45.908878],[18.456062,45.759481],[17.630066,45.951769],[16.882515,46.380632],[16.564808,46.503751],[16.370505,46.841327],[16.202298,46.852386]]]}},{"type":"Feature","properties":{"scalerank":1,"featurecla":"Admin-0 country","labelrank":3,"sovereignt":"Ireland","sov_a3":"IRL","adm0_dif":0,"level":2,"type":"Sovereign country","admin":"Ireland","adm0_a3":"IRL","geou_dif":0,"geounit":"Ireland","gu_a3":"IRL","su_dif":0,"subunit":"Ireland","su_a3":"IRL","brk_diff":0,"name":"Ireland","name_long":"Ireland","brk_a3":"IRL","brk_name":"Ireland","brk_group":null,"abbrev":"Ire.","postal":"IRL","formal_en":"Ireland","formal_fr":null,"note_adm0":null,"note_brk":null,"name_sort":"Ireland","name_alt":null,"mapcolor7":2,"mapcolor8":3,"mapcolor9":2,"mapcolor13":2,"pop_est":4203200,"gdp_md_est":188400,"pop_year":-99,"lastcensus":2011,"gdp_year":-99,"economy":"2. Developed region: nonG7","income_grp":"1. High income: OECD","wikipedia":-99,"fips_10":null,"iso_a2":"IE","iso_a3":"IRL","iso_n3":372,"un_a3":372,"wb_a2":"IE","wb_a3":"IRL","woe_id":-99,"adm0_a3_is":"IRL","adm0_a3_us":"IRL","adm0_a3_un":-99,"adm0_a3_wb":-99,"continent":"Europe","region_un":"Europe","subregion":"Northern Europe","region_wb":"Europe & Central Asia","name_len":7,"long_len":7,"abbrev_len":4,"tiny":-99,"homepart":1,"filename":"IRL.geojson"},"geometry":{"type":"Polygon","coordinates":[[[353.802115,53.867565],[353.967015,53.153164],[353.211143,52.260118],[351.438383,51.669301],[350.022914,51.820455],[350.833717,52.864629],[350.311475,53.881363],[351.672013,54.664519],[352.427832,55.131622],[352.633969,54.595841],[352.427832,54.059956],[353.04627,54.073702],[353.802115,53.867565]]]}},{"type":"Feature","properties":{"scalerank":1,"featurecla":"Admin-0 country","labelrank":3,"sovereignt":"Iceland","sov_a3":"ISL","adm0_dif":0,"level":2,"type":"Sovereign country","admin":"Iceland","adm0_a3":"ISL","geou_dif":0,"geounit":"Iceland","gu_a3":"ISL","su_dif":0,"subunit":"Iceland","su_a3":"ISL","brk_diff":0,"name":"Iceland","name_long":"Iceland","brk_a3":"ISL","brk_name":"Iceland","brk_group":null,"abbrev":"Iceland","postal":"IS","formal_en":"Republic of Iceland","formal_fr":null,"note_adm0":null,"note_brk":null,"name_sort":"Iceland","name_alt":null,"mapcolor7":1,"mapcolor8":4,"mapcolor9":4,"mapcolor13":9,"pop_est":306694,"gdp_md_est":12710,"pop_year":-99,"lastcensus":-99,"gdp_year":-99,"economy":"2. Developed region: nonG7","income_grp":"1. High income: OECD","wikipedia":-99,"fips_10":null,"iso_a2":"IS","iso_a3":"ISL","iso_n3":352,"un_a3":352,"wb_a2":"IS","wb_a3":"ISL","woe_id":-99,"adm0_a3_is":"ISL","adm0_a3_us":"ISL","adm0_a3_un":-99,"adm0_a3_wb":-99,"continent":"Europe","region_un":"Europe","subregion":"Northern Europe","region_wb":"Europe & Central Asia","name_len":7,"long_len":7,"abbrev_len":7,"tiny":-99,"homepart":1,"filename":"ISL.geojson"},"geometry":{"type":"Polygon","coordinates":[[[345.491305,66.455892],[345.260363,65.808748],[346.390268,65.126671],[345.090166,64.364082],[342.205562,63.678749],[341.343754,63.496383],[340.027245,63.643635],[337.237028,63.960179],[338.221516,64.402116],[336.044956,64.89113],[337.815597,65.084968],[337.772577,65.378594],[335.673816,65.611189],[336.349485,66.262519],[337.865078,66.410469],[339.423716,65.732112],[340.943158,66.276601],[342.201376,65.993853],[343.832181,66.526792],[345.491305,66.455892]]]}},{"type":"Feature","properties":{"scalerank":1,"featurecla":"Admin-0 country","labelrank":2,"sovereignt":"Italy","sov_a3":"ITA","adm0_dif":0,"level":2,"type":"Sovereign country","admin":"Italy","adm0_a3":"ITA","geou_dif":0,"geounit":"Italy","gu_a3":"ITA","su_dif":0,"subunit":"Italy","su_a3":"ITA","brk_diff":0,"name":"Italy","name_long":"Italy","brk_a3":"ITA","brk_name":"Italy","brk_group":null,"abbrev":"Italy","postal":"I","formal_en":"Italian Republic","formal_fr":null,"note_adm0":null,"note_brk":null,"name_sort":"Italy","name_alt":null,"mapcolor7":6,"mapcolor8":7,"mapcolor9":8,"mapcolor13":7,"pop_est":58126212,"gdp_md_est":1823000,"pop_year":-99,"lastcensus":2012,"gdp_year":-99,"economy":"1. Developed region: G7","income_grp":"1. High income: OECD","wikipedia":-99,"fips_10":null,"iso_a2":"IT","iso_a3":"ITA","iso_n3":380,"un_a3":380,"wb_a2":"IT","wb_a3":"ITA","woe_id":-99,"adm0_a3_is":"ITA","adm0_a3_us":"ITA","adm0_a3_un":-99,"adm0_a3_wb":-99,"continent":"Europe","region_un":"Europe","subregion":"Southern Europe","region_wb":"Europe & Central Asia","name_len":5,"long_len":5,"abbrev_len":5,"tiny":-99,"homepart":1,"filename":"ITA.geojson"},"geometry":{"type":"MultiPolygon","coordinates":[[[[15.520376,38.231155],[15.160243,37.444046],[15.309898,37.134219],[15.099988,36.619987],[14.335229,36.996631],[13.826733,37.104531],[12.431004,37.61295],[12.570944,38.126381],[13.741156,38.034966],[14.761249,38.143874],[15.520376,38.231155]]],[[[9.210012,41.209991],[9.809975,40.500009],[9.669519,39.177376],[9.214818,39.240473],[8.806936,38.906618],[8.428302,39.171847],[8.388253,40.378311],[8.159998,40.950007],[8.709991,40.899984],[9.210012,41.209991]]],[[[12.376485,46.767559],[13.806475,46.509306],[13.69811,46.016778],[13.93763,45.591016],[13.141606,45.736692],[12.328581,45.381778],[12.383875,44.885374],[12.261453,44.600482],[12.589237,44.091366],[13.526906,43.587727],[14.029821,42.761008],[15.14257,41.95514],[15.926191,41.961315],[16.169897,41.740295],[15.889346,41.541082],[16.785002,41.179606],[17.519169,40.877143],[18.376687,40.355625],[18.480247,40.168866],[18.293385,39.810774],[17.73838,40.277671],[16.869596,40.442235],[16.448743,39.795401],[17.17149,39.4247],[17.052841,38.902871],[16.635088,38.843572],[16.100961,37.985899],[15.684087,37.908849],[15.687963,38.214593],[15.891981,38.750942],[16.109332,38.964547],[15.718814,39.544072],[15.413613,40.048357],[14.998496,40.172949],[14.703268,40.60455],[14.060672,40.786348],[13.627985,41.188287],[12.888082,41.25309],[12.106683,41.704535],[11.191906,42.355425],[10.511948,42.931463],[10.200029,43.920007],[9.702488,44.036279],[8.888946,44.366336],[8.428561,44.231228],[7.850767,43.767148],[7.435185,43.693845],[7.549596,44.127901],[7.007562,44.254767],[6.749955,45.028518],[7.096652,45.333099],[6.802355,45.70858],[6.843593,45.991147],[7.273851,45.776948],[7.755992,45.82449],[8.31663,46.163642],[8.489952,46.005151],[8.966306,46.036932],[9.182882,46.440215],[9.922837,46.314899],[10.363378,46.483571],[10.442701,46.893546],[11.048556,46.751359],[11.164828,46.941579],[12.153088,47.115393],[12.376485,46.767559]]]]}},{"type":"Feature","properties":{"scalerank":1,"featurecla":"Admin-0 country","labelrank":6,"sovereignt":"Kosovo","sov_a3":"KOS","adm0_dif":0,"level":2,"type":"Sovereign country","admin":"Kosovo","adm0_a3":"KOS","geou_dif":0,"geounit":"Kosovo","gu_a3":"KOS","su_dif":0,"subunit":"Kosovo","su_a3":"KOS","brk_diff":1,"name":"Kosovo","name_long":"Kosovo","brk_a3":"B57","brk_name":"Kosovo","brk_group":null,"abbrev":"Kos.","postal":"KO","formal_en":"Republic of Kosovo","formal_fr":null,"note_adm0":null,"note_brk":"Self admin.; Claimed by Serbia","name_sort":"Kosovo","name_alt":null,"mapcolor7":2,"mapcolor8":2,"mapcolor9":3,"mapcolor13":11,"pop_est":1804838,"gdp_md_est":5352,"pop_year":-99,"lastcensus":1981,"gdp_year":-99,"economy":"6. Developing region","income_grp":"4. Lower middle income","wikipedia":-99,"fips_10":null,"iso_a2":-99,"iso_a3":-99,"iso_n3":-99,"un_a3":"-099","wb_a2":"KV","wb_a3":"KSV","woe_id":-99,"adm0_a3_is":"SRB","adm0_a3_us":"KOS","adm0_a3_un":-99,"adm0_a3_wb":-99,"continent":"Europe","region_un":"Europe","subregion":"Southern Europe","region_wb":"Europe & Central Asia","name_len":6,"long_len":6,"abbrev_len":4,"tiny":-99,"homepart":1,"filename":"KOS.geojson"},"geometry":{"type":"Polygon","coordinates":[[[20.76216,42.05186],[20.71731,41.84711],[20.59023,41.85541],[20.52295,42.21787],[20.28374,42.32025],[20.0707,42.58863],[20.25758,42.81275],[20.49679,42.88469],[20.63508,43.21671],[20.81448,43.27205],[20.95651,43.13094],[21.143395,43.068685],[21.27421,42.90959],[21.43866,42.86255],[21.63302,42.67717],[21.77505,42.6827],[21.66292,42.43922],[21.54332,42.32025],[21.576636,42.245224],[21.3527,42.2068],[20.76216,42.05186]]]}},{"type":"Feature","properties":{"scalerank":1,"featurecla":"Admin-0 country","labelrank":5,"sovereignt":"Lithuania","sov_a3":"LTU","adm0_dif":0,"level":2,"type":"Sovereign country","admin":"Lithuania","adm0_a3":"LTU","geou_dif":0,"geounit":"Lithuania","gu_a3":"LTU","su_dif":0,"subunit":"Lithuania","su_a3":"LTU","brk_diff":0,"name":"Lithuania","name_long":"Lithuania","brk_a3":"LTU","brk_name":"Lithuania","brk_group":null,"abbrev":"Lith.","postal":"LT","formal_en":"Republic of Lithuania","formal_fr":null,"note_adm0":null,"note_brk":null,"name_sort":"Lithuania","name_alt":null,"mapcolor7":6,"mapcolor8":3,"mapcolor9":3,"mapcolor13":9,"pop_est":3555179,"gdp_md_est":63330,"pop_year":-99,"lastcensus":2011,"gdp_year":-99,"economy":"2. Developed region: nonG7","income_grp":"3. Upper middle income","wikipedia":-99,"fips_10":null,"iso_a2":"LT","iso_a3":"LTU","iso_n3":440,"un_a3":440,"wb_a2":"LT","wb_a3":"LTU","woe_id":-99,"adm0_a3_is":"LTU","adm0_a3_us":"LTU","adm0_a3_un":-99,"adm0_a3_wb":-99,"continent":"Europe","region_un":"Europe","subregion":"Northern Europe","region_wb":"Europe & Central Asia","name_len":9,"long_len":9,"abbrev_len":5,"tiny":-99,"homepart":1,"filename":"LTU.geojson"},"geometry":{"type":"Polygon","coordinates":[[[22.731099,54.327537],[22.651052,54.582741],[22.757764,54.856574],[22.315724,55.015299],[21.268449,55.190482],[21.0558,56.031076],[22.201157,56.337802],[23.878264,56.273671],[24.860684,56.372528],[25.000934,56.164531],[25.533047,56.100297],[26.494331,55.615107],[26.588279,55.167176],[25.768433,54.846963],[25.536354,54.282423],[24.450684,53.905702],[23.484128,53.912498],[23.243987,54.220567],[22.731099,54.327537]]]}},{"type":"Feature","properties":{"scalerank":1,"featurecla":"Admin-0 country","labelrank":5,"sovereignt":"Latvia","sov_a3":"LVA","adm0_dif":0,"level":2,"type":"Sovereign country","admin":"Latvia","adm0_a3":"LVA","geou_dif":0,"geounit":"Latvia","gu_a3":"LVA","su_dif":0,"subunit":"Latvia","su_a3":"LVA","brk_diff":0,"name":"Latvia","name_long":"Latvia","brk_a3":"LVA","brk_name":"Latvia","brk_group":null,"abbrev":"Lat.","postal":"LV","formal_en":"Republic of Latvia","formal_fr":null,"note_adm0":null,"note_brk":null,"name_sort":"Latvia","name_alt":null,"mapcolor7":4,"mapcolor8":7,"mapcolor9":6,"mapcolor13":13,"pop_est":2231503,"gdp_md_est":38860,"pop_year":-99,"lastcensus":2011,"gdp_year":-99,"economy":"2. Developed region: nonG7","income_grp":"3. Upper middle income","wikipedia":-99,"fips_10":null,"iso_a2":"LV","iso_a3":"LVA","iso_n3":428,"un_a3":428,"wb_a2":"LV","wb_a3":"LVA","woe_id":-99,"adm0_a3_is":"LVA","adm0_a3_us":"LVA","adm0_a3_un":-99,"adm0_a3_wb":-99,"continent":"Europe","region_un":"Europe","subregion":"Northern Europe","region_wb":"Europe & Central Asia","name_len":6,"long_len":6,"abbrev_len":4,"tiny":-99,"homepart":1,"filename":"LVA.geojson"},"geometry":{"type":"Polygon","coordinates":[[[21.0558,56.031076],[21.090424,56.783873],[21.581866,57.411871],[22.524341,57.753374],[23.318453,57.006236],[24.12073,57.025693],[24.312863,57.793424],[25.164594,57.970157],[25.60281,57.847529],[26.463532,57.476389],[27.288185,57.474528],[27.770016,57.244258],[27.855282,56.759326],[28.176709,56.16913],[27.10246,55.783314],[26.494331,55.615107],[25.533047,56.100297],[25.000934,56.164531],[24.860684,56.372528],[23.878264,56.273671],[22.201157,56.337802],[21.0558,56.031076]]]}},{"type":"Feature","properties":{"scalerank":1,"featurecla":"Admin-0 country","labelrank":6,"sovereignt":"Moldova","sov_a3":"MDA","adm0_dif":0,"level":2,"type":"Sovereign country","admin":"Moldova","adm0_a3":"MDA","geou_dif":0,"geounit":"Moldova","gu_a3":"MDA","su_dif":0,"subunit":"Moldova","su_a3":"MDA","brk_diff":0,"name":"Moldova","name_long":"Moldova","brk_a3":"MDA","brk_name":"Moldova","brk_group":null,"abbrev":"Mda.","postal":"MD","formal_en":"Republic of Moldova","formal_fr":null,"note_adm0":null,"note_brk":null,"name_sort":"Moldova","name_alt":null,"mapcolor7":3,"mapcolor8":5,"mapcolor9":4,"mapcolor13":12,"pop_est":4320748,"gdp_md_est":10670,"pop_year":-99,"lastcensus":2004,"gdp_year":-99,"economy":"6. Developing region","income_grp":"4. Lower middle income","wikipedia":-99,"fips_10":null,"iso_a2":"MD","iso_a3":"MDA","iso_n3":498,"un_a3":498,"wb_a2":"MD","wb_a3":"MDA","woe_id":-99,"adm0_a3_is":"MDA","adm0_a3_us":"MDA","adm0_a3_un":-99,"adm0_a3_wb":-99,"continent":"Europe","region_un":"Europe","subregion":"Eastern Europe","region_wb":"Europe & Central Asia","name_len":7,"long_len":7,"abbrev_len":4,"tiny":-99,"homepart":1,"filename":"MDA.geojson"},"geometry":{"type":"Polygon","coordinates":[[[26.619337,48.220726],[26.857824,48.368211],[27.522537,48.467119],[28.259547,48.155562],[28.670891,48.118149],[29.122698,47.849095],[29.050868,47.510227],[29.415135,47.346645],[29.559674,46.928583],[29.908852,46.674361],[29.83821,46.525326],[30.024659,46.423937],[29.759972,46.349988],[29.170654,46.379262],[29.072107,46.517678],[28.862972,46.437889],[28.933717,46.25883],[28.659987,45.939987],[28.485269,45.596907],[28.233554,45.488283],[28.054443,45.944586],[28.160018,46.371563],[28.12803,46.810476],[27.551166,47.405117],[27.233873,47.826771],[26.924176,48.123264],[26.619337,48.220726]]]}},{"type":"Feature","properties":{"scalerank":1,"featurecla":"Admin-0 country","labelrank":6,"sovereignt":"Luxembourg","sov_a3":"LUX","adm0_dif":0,"level":2,"type":"Sovereign country","admin":"Luxembourg","adm0_a3":"LUX","geou_dif":0,"geounit":"Luxembourg","gu_a3":"LUX","su_dif":0,"subunit":"Luxembourg","su_a3":"LUX","brk_diff":0,"name":"Luxembourg","name_long":"Luxembourg","brk_a3":"LUX","brk_name":"Luxembourg","brk_group":null,"abbrev":"Lux.","postal":"L","formal_en":"Grand Duchy of Luxembourg","formal_fr":null,"note_adm0":null,"note_brk":null,"name_sort":"Luxembourg","name_alt":null,"mapcolor7":1,"mapcolor8":7,"mapcolor9":3,"mapcolor13":7,"pop_est":491775,"gdp_md_est":39370,"pop_year":-99,"lastcensus":2011,"gdp_year":-99,"economy":"2. Developed region: nonG7","income_grp":"1. High income: OECD","wikipedia":-99,"fips_10":null,"iso_a2":"LU","iso_a3":"LUX","iso_n3":442,"un_a3":442,"wb_a2":"LU","wb_a3":"LUX","woe_id":-99,"adm0_a3_is":"LUX","adm0_a3_us":"LUX","adm0_a3_un":-99,"adm0_a3_wb":-99,"continent":"Europe","region_un":"Europe","subregion":"Western Europe","region_wb":"Europe & Central Asia","name_len":10,"long_len":10,"abbrev_len":4,"tiny":5,"homepart":1,"filename":"LUX.geojson"},"geometry":{"type":"Polygon","coordinates":[[[6.043073,50.128052],[6.242751,49.902226],[6.18632,49.463803],[5.897759,49.442667],[5.674052,49.529484],[5.782417,50.090328],[6.043073,50.128052]]]}},{"type":"Feature","properties":{"scalerank":1,"featurecla":"Admin-0 country","labelrank":6,"sovereignt":"Macedonia","sov_a3":"MKD","adm0_dif":0,"level":2,"type":"Sovereign country","admin":"Macedonia","adm0_a3":"MKD","geou_dif":0,"geounit":"Macedonia","gu_a3":"MKD","su_dif":0,"subunit":"Macedonia","su_a3":"MKD","brk_diff":0,"name":"Macedonia","name_long":"Macedonia","brk_a3":"MKD","brk_name":"Macedonia","brk_group":null,"abbrev":"Mkd.","postal":"MK","formal_en":"Former Yugoslav Republic of Macedonia","formal_fr":null,"note_adm0":null,"note_brk":null,"name_sort":"Macedonia, FYR","name_alt":null,"mapcolor7":5,"mapcolor8":3,"mapcolor9":7,"mapcolor13":3,"pop_est":2066718,"gdp_md_est":18780,"pop_year":-99,"lastcensus":2010,"gdp_year":-99,"economy":"6. Developing region","income_grp":"3. Upper middle income","wikipedia":-99,"fips_10":null,"iso_a2":"MK","iso_a3":"MKD","iso_n3":807,"un_a3":807,"wb_a2":"MK","wb_a3":"MKD","woe_id":-99,"adm0_a3_is":"MKD","adm0_a3_us":"MKD","adm0_a3_un":-99,"adm0_a3_wb":-99,"continent":"Europe","region_un":"Europe","subregion":"Southern Europe","region_wb":"Europe & Central Asia","name_len":9,"long_len":9,"abbrev_len":4,"tiny":-99,"homepart":1,"filename":"MKD.geojson"},"geometry":{"type":"Polygon","coordinates":[[[20.59023,41.85541],[20.71731,41.84711],[20.76216,42.05186],[21.3527,42.2068],[21.576636,42.245224],[21.91708,42.30364],[22.380526,42.32026],[22.881374,41.999297],[22.952377,41.337994],[22.76177,41.3048],[22.597308,41.130487],[22.055378,41.149866],[21.674161,40.931275],[21.02004,40.842727],[20.60518,41.08622],[20.46315,41.51509],[20.59023,41.85541]]]}},{"type":"Feature","properties":{"scalerank":1,"featurecla":"Admin-0 country","labelrank":6,"sovereignt":"Montenegro","sov_a3":"MNE","adm0_dif":0,"level":2,"type":"Sovereign country","admin":"Montenegro","adm0_a3":"MNE","geou_dif":0,"geounit":"Montenegro","gu_a3":"MNE","su_dif":0,"subunit":"Montenegro","su_a3":"MNE","brk_diff":0,"name":"Montenegro","name_long":"Montenegro","brk_a3":"MNE","brk_name":"Montenegro","brk_group":null,"abbrev":"Mont.","postal":"ME","formal_en":"Montenegro","formal_fr":null,"note_adm0":null,"note_brk":null,"name_sort":"Montenegro","name_alt":null,"mapcolor7":4,"mapcolor8":1,"mapcolor9":4,"mapcolor13":5,"pop_est":672180,"gdp_md_est":6816,"pop_year":-99,"lastcensus":2011,"gdp_year":-99,"economy":"6. Developing region","income_grp":"3. Upper middle income","wikipedia":-99,"fips_10":null,"iso_a2":"ME","iso_a3":"MNE","iso_n3":499,"un_a3":499,"wb_a2":"ME","wb_a3":"MNE","woe_id":-99,"adm0_a3_is":"MNE","adm0_a3_us":"MNE","adm0_a3_un":-99,"adm0_a3_wb":-99,"continent":"Europe","region_un":"Europe","subregion":"Southern Europe","region_wb":"Europe & Central Asia","name_len":10,"long_len":10,"abbrev_len":5,"tiny":-99,"homepart":1,"filename":"MNE.geojson"},"geometry":{"type":"Polygon","coordinates":[[[19.801613,42.500093],[19.738051,42.688247],[19.30449,42.19574],[19.37177,41.87755],[19.16246,41.95502],[18.88214,42.28151],[18.45,42.48],[18.56,42.65],[18.70648,43.20011],[19.03165,43.43253],[19.21852,43.52384],[19.48389,43.35229],[19.63,43.21378],[19.95857,43.10604],[20.3398,42.89852],[20.25758,42.81275],[20.0707,42.58863],[19.801613,42.500093]]]}},{"type":"Feature","properties":{"scalerank":1,"featurecla":"Admin-0 country","labelrank":5,"sovereignt":"Netherlands","sov_a3":"NL1","adm0_dif":1,"level":2,"type":"Country","admin":"Netherlands","adm0_a3":"NLD","geou_dif":0,"geounit":"Netherlands","gu_a3":"NLD","su_dif":0,"subunit":"Netherlands","su_a3":"NLD","brk_diff":0,"name":"Netherlands","name_long":"Netherlands","brk_a3":"NLD","brk_name":"Netherlands","brk_group":null,"abbrev":"Neth.","postal":"NL","formal_en":"Kingdom of the Netherlands","formal_fr":null,"note_adm0":null,"note_brk":null,"name_sort":"Netherlands","name_alt":null,"mapcolor7":4,"mapcolor8":2,"mapcolor9":2,"mapcolor13":9,"pop_est":16715999,"gdp_md_est":672000,"pop_year":-99,"lastcensus":2011,"gdp_year":-99,"economy":"2. Developed region: nonG7","income_grp":"1. High income: OECD","wikipedia":-99,"fips_10":null,"iso_a2":"NL","iso_a3":"NLD","iso_n3":528,"un_a3":528,"wb_a2":"NL","wb_a3":"NLD","woe_id":-99,"adm0_a3_is":"NLD","adm0_a3_us":"NLD","adm0_a3_un":-99,"adm0_a3_wb":-99,"continent":"Europe","region_un":"Europe","subregion":"Western Europe","region_wb":"Europe & Central Asia","name_len":11,"long_len":11,"abbrev_len":5,"tiny":-99,"homepart":1,"filename":"NLD.geojson"},"geometry":{"type":"Polygon","coordinates":[[[6.074183,53.510403],[6.90514,53.482162],[7.092053,53.144043],[6.84287,52.22844],[6.589397,51.852029],[5.988658,51.851616],[6.156658,50.803721],[5.606976,51.037298],[4.973991,51.475024],[4.047071,51.267259],[3.314971,51.345755],[3.830289,51.620545],[4.705997,53.091798],[6.074183,53.510403]]]}},{"type":"Feature","properties":{"scalerank":1,"featurecla":"Admin-0 country","labelrank":3,"sovereignt":"Norway","sov_a3":"NOR","adm0_dif":0,"level":2,"type":"Sovereign country","admin":"Norway","adm0_a3":"NOR","geou_dif":0,"geounit":"Norway","gu_a3":"NOR","su_dif":0,"subunit":"Norway","su_a3":"NOR","brk_diff":0,"name":"Norway","name_long":"Norway","brk_a3":"NOR","brk_name":"Norway","brk_group":null,"abbrev":"Nor.","postal":"N","formal_en":"Kingdom of Norway","formal_fr":null,"note_adm0":null,"note_brk":null,"name_sort":"Norway","name_alt":null,"mapcolor7":5,"mapcolor8":3,"mapcolor9":8,"mapcolor13":12,"pop_est":4676305,"gdp_md_est":276400,"pop_year":-99,"lastcensus":2001,"gdp_year":-99,"economy":"2. Developed region: nonG7","income_grp":"1. High income: OECD","wikipedia":-99,"fips_10":null,"iso_a2":"NO","iso_a3":"NOR","iso_n3":578,"un_a3":578,"wb_a2":"NO","wb_a3":"NOR","woe_id":-99,"adm0_a3_is":"NOR","adm0_a3_us":"NOR","adm0_a3_un":-99,"adm0_a3_wb":-99,"continent":"Europe","region_un":"Europe","subregion":"Northern Europe","region_wb":"Europe & Central Asia","name_len":6,"long_len":6,"abbrev_len":4,"tiny":-99,"homepart":1,"filename":"NOR.geojson"},"geometry":{"type":"MultiPolygon","coordinates":[[[[28.165547,71.185474],[31.293418,70.453788],[30.005435,70.186259],[31.101079,69.55808],[29.399581,69.156916],[28.59193,69.064777],[29.015573,69.766491],[27.732292,70.164193],[26.179622,69.825299],[25.689213,69.092114],[24.735679,68.649557],[23.66205,68.891247],[22.356238,68.841741],[21.244936,69.370443],[20.645593,69.106247],[20.025269,69.065139],[19.87856,68.407194],[17.993868,68.567391],[17.729182,68.010552],[16.768879,68.013937],[16.108712,67.302456],[15.108411,66.193867],[13.55569,64.787028],[13.919905,64.445421],[13.571916,64.049114],[12.579935,64.066219],[11.930569,63.128318],[11.992064,61.800362],[12.631147,61.293572],[12.300366,60.117933],[11.468272,59.432393],[11.027369,58.856149],[10.356557,59.469807],[8.382,58.313288],[7.048748,58.078884],[5.665835,58.588155],[5.308234,59.663232],[4.992078,61.970998],[5.9129,62.614473],[8.553411,63.454008],[10.527709,64.486038],[12.358347,65.879726],[14.761146,67.810642],[16.435927,68.563205],[19.184028,69.817444],[21.378416,70.255169],[23.023742,70.202072],[24.546543,71.030497],[26.37005,70.986262],[28.165547,71.185474]]],[[[24.72412,77.85385],[22.49032,77.44493],[20.72601,77.67704],[21.41611,77.93504],[20.8119,78.25463],[22.88426,78.45494],[23.28134,78.07954],[24.72412,77.85385]]],[[[18.25183,79.70175],[21.54383,78.95611],[19.02737,78.5626],[18.47172,77.82669],[17.59441,77.63796],[17.1182,76.80941],[15.91315,76.77045],[13.76259,77.38035],[14.66956,77.73565],[13.1706,78.02493],[11.22231,78.8693],[10.44453,79.65239],[13.17077,80.01046],[13.71852,79.66039],[15.14282,79.67431],[15.52255,80.01608],[16.99085,80.05086],[18.25183,79.70175]]],[[[25.447625,80.40734],[27.407506,80.056406],[25.924651,79.517834],[23.024466,79.400012],[20.075188,79.566823],[19.897266,79.842362],[18.462264,79.85988],[17.368015,80.318896],[20.455992,80.598156],[21.907945,80.357679],[22.919253,80.657144],[25.447625,80.40734]]]]}},{"type":"Feature","properties":{"scalerank":1,"featurecla":"Admin-0 country","labelrank":3,"sovereignt":"Poland","sov_a3":"POL","adm0_dif":0,"level":2,"type":"Sovereign country","admin":"Poland","adm0_a3":"POL","geou_dif":0,"geounit":"Poland","gu_a3":"POL","su_dif":0,"subunit":"Poland","su_a3":"POL","brk_diff":0,"name":"Poland","name_long":"Poland","brk_a3":"POL","brk_name":"Poland","brk_group":null,"abbrev":"Pol.","postal":"PL","formal_en":"Republic of Poland","formal_fr":null,"note_adm0":null,"note_brk":null,"name_sort":"Poland","name_alt":null,"mapcolor7":3,"mapcolor8":7,"mapcolor9":1,"mapcolor13":2,"pop_est":38482919,"gdp_md_est":667900,"pop_year":-99,"lastcensus":2011,"gdp_year":-99,"economy":"2. Developed region: nonG7","income_grp":"1. High income: OECD","wikipedia":-99,"fips_10":null,"iso_a2":"PL","iso_a3":"POL","iso_n3":616,"un_a3":616,"wb_a2":"PL","wb_a3":"POL","woe_id":-99,"adm0_a3_is":"POL","adm0_a3_us":"POL","adm0_a3_un":-99,"adm0_a3_wb":-99,"continent":"Europe","region_un":"Europe","subregion":"Eastern Europe","region_wb":"Europe & Central Asia","name_len":6,"long_len":6,"abbrev_len":4,"tiny":-99,"homepart":1,"filename":"POL.geojson"},"geometry":{"type":"Polygon","coordinates":[[[15.016996,51.106674],[14.607098,51.745188],[14.685026,52.089947],[14.4376,52.62485],[14.074521,52.981263],[14.353315,53.248171],[14.119686,53.757029],[14.8029,54.050706],[16.363477,54.513159],[17.622832,54.851536],[18.620859,54.682606],[18.696255,54.438719],[19.66064,54.426084],[20.892245,54.312525],[22.731099,54.327537],[23.243987,54.220567],[23.484128,53.912498],[23.527536,53.470122],[23.804935,53.089731],[23.799199,52.691099],[23.199494,52.486977],[23.508002,52.023647],[23.527071,51.578454],[24.029986,50.705407],[23.922757,50.424881],[23.426508,50.308506],[22.51845,49.476774],[22.776419,49.027395],[22.558138,49.085738],[21.607808,49.470107],[20.887955,49.328772],[20.415839,49.431453],[19.825023,49.217125],[19.320713,49.571574],[18.909575,49.435846],[18.853144,49.49623],[18.392914,49.988629],[17.649445,50.049038],[17.554567,50.362146],[16.868769,50.473974],[16.719476,50.215747],[16.176253,50.422607],[16.238627,50.697733],[15.490972,50.78473],[15.016996,51.106674]]]}},{"type":"Feature","properties":{"scalerank":1,"featurecla":"Admin-0 country","labelrank":2,"sovereignt":"Portugal","sov_a3":"PRT","adm0_dif":0,"level":2,"type":"Sovereign country","admin":"Portugal","adm0_a3":"PRT","geou_dif":0,"geounit":"Portugal","gu_a3":"PRT","su_dif":1,"subunit":"Portugal","su_a3":"PR1","brk_diff":0,"name":"Portugal","name_long":"Portugal","brk_a3":"PR1","brk_name":"Portugal","brk_group":null,"abbrev":"Port.","postal":"P","formal_en":"Portuguese Republic","formal_fr":null,"note_adm0":null,"note_brk":null,"name_sort":"Portugal","name_alt":null,"mapcolor7":1,"mapcolor8":7,"mapcolor9":1,"mapcolor13":4,"pop_est":10707924,"gdp_md_est":208627,"pop_year":-99,"lastcensus":2011,"gdp_year":0,"economy":"2. Developed region: nonG7","income_grp":"1. High income: OECD","wikipedia":-99,"fips_10":null,"iso_a2":"PT","iso_a3":"PRT","iso_n3":620,"un_a3":620,"wb_a2":"PT","wb_a3":"PRT","woe_id":-99,"adm0_a3_is":"PRT","adm0_a3_us":"PRT","adm0_a3_un":-99,"adm0_a3_wb":-99,"continent":"Europe","region_un":"Europe","subregion":"Southern Europe","region_wb":"Europe & Central Asia","name_len":8,"long_len":8,"abbrev_len":5,"tiny":-99,"homepart":1,"filename":"PRT.geojson"},"geometry":{"type":"Polygon","coordinates":[[[350.965182,41.880571],[351.328054,42.134689],[351.736143,42.280469],[351.986825,41.790886],[352.577487,41.792075],[352.748691,41.918346],[353.331394,41.883387],[353.610912,41.381815],[353.148873,41.111083],[353.13598,40.330872],[352.973587,40.184524],[352.933408,39.711892],[352.501368,39.629571],[352.901963,39.030073],[352.625908,38.373059],[352.970719,38.075764],[352.833492,37.803894],[352.462895,37.428904],[352.546274,37.097788],[352.144387,36.838269],[351.617184,36.97888],[351.101143,36.868809],[351.253899,37.651346],[351.160002,38.266243],[350.712536,38.358486],[350.473429,38.737429],[350.553011,39.392066],[350.951695,39.755093],[351.022647,40.159306],[351.231316,40.760639],[351.209147,41.184334],[351.009211,41.543459],[350.965182,41.880571]]]}},{"type":"Feature","properties":{"scalerank":1,"featurecla":"Admin-0 country","labelrank":3,"sovereignt":"Romania","sov_a3":"ROU","adm0_dif":0,"level":2,"type":"Sovereign country","admin":"Romania","adm0_a3":"ROU","geou_dif":0,"geounit":"Romania","gu_a3":"ROU","su_dif":0,"subunit":"Romania","su_a3":"ROU","brk_diff":0,"name":"Romania","name_long":"Romania","brk_a3":"ROU","brk_name":"Romania","brk_group":null,"abbrev":"Rom.","postal":"RO","formal_en":"Romania","formal_fr":null,"note_adm0":null,"note_brk":null,"name_sort":"Romania","name_alt":null,"mapcolor7":1,"mapcolor8":4,"mapcolor9":3,"mapcolor13":13,"pop_est":22215421,"gdp_md_est":271400,"pop_year":-99,"lastcensus":2011,"gdp_year":-99,"economy":"2. Developed region: nonG7","income_grp":"3. Upper middle income","wikipedia":-99,"fips_10":null,"iso_a2":"RO","iso_a3":"ROU","iso_n3":642,"un_a3":642,"wb_a2":"RO","wb_a3":"ROM","woe_id":-99,"adm0_a3_is":"ROU","adm0_a3_us":"ROU","adm0_a3_un":-99,"adm0_a3_wb":-99,"continent":"Europe","region_un":"Europe","subregion":"Eastern Europe","region_wb":"Europe & Central Asia","name_len":7,"long_len":7,"abbrev_len":4,"tiny":-99,"homepart":1,"filename":"ROU.geojson"},"geometry":{"type":"Polygon","coordinates":[[[22.710531,47.882194],[23.142236,48.096341],[23.760958,47.985598],[24.402056,47.981878],[24.866317,47.737526],[25.207743,47.891056],[25.945941,47.987149],[26.19745,48.220881],[26.619337,48.220726],[26.924176,48.123264],[27.233873,47.826771],[27.551166,47.405117],[28.12803,46.810476],[28.160018,46.371563],[28.054443,45.944586],[28.233554,45.488283],[28.679779,45.304031],[29.149725,45.464925],[29.603289,45.293308],[29.626543,45.035391],[29.141612,44.82021],[28.837858,44.913874],[28.558081,43.707462],[27.970107,43.812468],[27.2424,44.175986],[26.065159,43.943494],[25.569272,43.688445],[24.100679,43.741051],[23.332302,43.897011],[22.944832,43.823785],[22.65715,44.234923],[22.474008,44.409228],[22.705726,44.578003],[22.459022,44.702517],[22.145088,44.478422],[21.562023,44.768947],[21.483526,45.18117],[20.874313,45.416375],[20.762175,45.734573],[20.220192,46.127469],[21.021952,46.316088],[21.626515,46.994238],[22.099768,47.672439],[22.710531,47.882194]]]}},{"type":"Feature","properties":{"scalerank":1,"featurecla":"Admin-0 country","labelrank":5,"sovereignt":"Republic of Serbia","sov_a3":"SRB","adm0_dif":0,"level":2,"type":"Sovereign country","admin":"Republic of Serbia","adm0_a3":"SRB","geou_dif":0,"geounit":"Republic of Serbia","gu_a3":"SRB","su_dif":0,"subunit":"Republic of Serbia","su_a3":"SRB","brk_diff":0,"name":"Serbia","name_long":"Serbia","brk_a3":"SRB","brk_name":"Serbia","brk_group":null,"abbrev":"Serb.","postal":"RS","formal_en":"Republic of Serbia","formal_fr":null,"note_adm0":null,"note_brk":null,"name_sort":"Serbia","name_alt":null,"mapcolor7":3,"mapcolor8":3,"mapcolor9":2,"mapcolor13":10,"pop_est":7379339,"gdp_md_est":80340,"pop_year":-99,"lastcensus":2011,"gdp_year":-99,"economy":"6. Developing region","income_grp":"3. Upper middle income","wikipedia":-99,"fips_10":null,"iso_a2":"RS","iso_a3":"SRB","iso_n3":688,"un_a3":688,"wb_a2":"YF","wb_a3":"SRB","woe_id":-99,"adm0_a3_is":"SRB","adm0_a3_us":"SRB","adm0_a3_un":-99,"adm0_a3_wb":-99,"continent":"Europe","region_un":"Europe","subregion":"Southern Europe","region_wb":"Europe & Central Asia","name_len":6,"long_len":6,"abbrev_len":5,"tiny":-99,"homepart":1,"filename":"SRB.geojson"},"geometry":{"type":"Polygon","coordinates":[[[20.874313,45.416375],[21.483526,45.18117],[21.562023,44.768947],[22.145088,44.478422],[22.459022,44.702517],[22.705726,44.578003],[22.474008,44.409228],[22.65715,44.234923],[22.410446,44.008063],[22.500157,43.642814],[22.986019,43.211161],[22.604801,42.898519],[22.436595,42.580321],[22.545012,42.461362],[22.380526,42.32026],[21.91708,42.30364],[21.576636,42.245224],[21.54332,42.32025],[21.66292,42.43922],[21.77505,42.6827],[21.63302,42.67717],[21.43866,42.86255],[21.27421,42.90959],[21.143395,43.068685],[20.95651,43.13094],[20.81448,43.27205],[20.63508,43.21671],[20.49679,42.88469],[20.25758,42.81275],[20.3398,42.89852],[19.95857,43.10604],[19.63,43.21378],[19.48389,43.35229],[19.21852,43.52384],[19.454,43.5681],[19.59976,44.03847],[19.11761,44.42307],[19.36803,44.863],[19.00548,44.86023],[19.390476,45.236516],[19.072769,45.521511],[18.82982,45.90888],[19.596045,46.17173],[20.220192,46.127469],[20.762175,45.734573],[20.874313,45.416375]]]}},{"type":"Feature","properties":{"scalerank":1,"featurecla":"Admin-0 country","labelrank":6,"sovereignt":"Slovakia","sov_a3":"SVK","adm0_dif":0,"level":2,"type":"Sovereign country","admin":"Slovakia","adm0_a3":"SVK","geou_dif":0,"geounit":"Slovakia","gu_a3":"SVK","su_dif":0,"subunit":"Slovakia","su_a3":"SVK","brk_diff":0,"name":"Slovakia","name_long":"Slovakia","brk_a3":"SVK","brk_name":"Slovakia","brk_group":null,"abbrev":"Svk.","postal":"SK","formal_en":"Slovak Republic","formal_fr":null,"note_adm0":null,"note_brk":null,"name_sort":"Slovak Republic","name_alt":null,"mapcolor7":2,"mapcolor8":4,"mapcolor9":4,"mapcolor13":9,"pop_est":5463046,"gdp_md_est":119500,"pop_year":-99,"lastcensus":2011,"gdp_year":-99,"economy":"2. Developed region: nonG7","income_grp":"1. High income: OECD","wikipedia":-99,"fips_10":null,"iso_a2":"SK","iso_a3":"SVK","iso_n3":703,"un_a3":703,"wb_a2":"SK","wb_a3":"SVK","woe_id":-99,"adm0_a3_is":"SVK","adm0_a3_us":"SVK","adm0_a3_un":-99,"adm0_a3_wb":-99,"continent":"Europe","region_un":"Europe","subregion":"Eastern Europe","region_wb":"Europe & Central Asia","name_len":8,"long_len":8,"abbrev_len":4,"tiny":-99,"homepart":1,"filename":"SVK.geojson"},"geometry":{"type":"Polygon","coordinates":[[[18.853144,49.49623],[18.909575,49.435846],[19.320713,49.571574],[19.825023,49.217125],[20.415839,49.431453],[20.887955,49.328772],[21.607808,49.470107],[22.558138,49.085738],[22.280842,48.825392],[22.085608,48.422264],[21.872236,48.319971],[20.801294,48.623854],[20.473562,48.56285],[20.239054,48.327567],[19.769471,48.202691],[19.661364,48.266615],[19.174365,48.111379],[18.777025,48.081768],[18.696513,47.880954],[17.857133,47.758429],[17.488473,47.867466],[16.979667,48.123497],[16.879983,48.470013],[16.960288,48.596982],[17.101985,48.816969],[17.545007,48.800019],[17.886485,48.903475],[17.913512,48.996493],[18.104973,49.043983],[18.170498,49.271515],[18.399994,49.315001],[18.554971,49.495015],[18.853144,49.49623]]]}},{"type":"Feature","properties":{"scalerank":1,"featurecla":"Admin-0 country","labelrank":6,"sovereignt":"Slovenia","sov_a3":"SVN","adm0_dif":0,"level":2,"type":"Sovereign country","admin":"Slovenia","adm0_a3":"SVN","geou_dif":0,"geounit":"Slovenia","gu_a3":"SVN","su_dif":0,"subunit":"Slovenia","su_a3":"SVN","brk_diff":0,"name":"Slovenia","name_long":"Slovenia","brk_a3":"SVN","brk_name":"Slovenia","brk_group":null,"abbrev":"Slo.","postal":"SLO","formal_en":"Republic of Slovenia","formal_fr":null,"note_adm0":null,"note_brk":null,"name_sort":"Slovenia","name_alt":null,"mapcolor7":2,"mapcolor8":3,"mapcolor9":2,"mapcolor13":12,"pop_est":2005692,"gdp_md_est":59340,"pop_year":-99,"lastcensus":2011,"gdp_year":-99,"economy":"2. Developed region: nonG7","income_grp":"1. High income: OECD","wikipedia":-99,"fips_10":null,"iso_a2":"SI","iso_a3":"SVN","iso_n3":705,"un_a3":705,"wb_a2":"SI","wb_a3":"SVN","woe_id":-99,"adm0_a3_is":"SVN","adm0_a3_us":"SVN","adm0_a3_un":-99,"adm0_a3_wb":-99,"continent":"Europe","region_un":"Europe","subregion":"Southern Europe","region_wb":"Europe & Central Asia","name_len":8,"long_len":8,"abbrev_len":4,"tiny":-99,"homepart":1,"filename":"SVN.geojson"},"geometry":{"type":"Polygon","coordinates":[[[13.806475,46.509306],[14.632472,46.431817],[15.137092,46.658703],[16.011664,46.683611],[16.202298,46.852386],[16.370505,46.841327],[16.564808,46.503751],[15.768733,46.238108],[15.67153,45.834154],[15.323954,45.731783],[15.327675,45.452316],[14.935244,45.471695],[14.595109,45.634941],[14.411968,45.466166],[13.71506,45.500324],[13.93763,45.591016],[13.69811,46.016778],[13.806475,46.509306]]]}},{"type":"Feature","properties":{"scalerank":1,"featurecla":"Admin-0 country","labelrank":3,"sovereignt":"Sweden","sov_a3":"SWE","adm0_dif":0,"level":2,"type":"Sovereign country","admin":"Sweden","adm0_a3":"SWE","geou_dif":0,"geounit":"Sweden","gu_a3":"SWE","su_dif":0,"subunit":"Sweden","su_a3":"SWE","brk_diff":0,"name":"Sweden","name_long":"Sweden","brk_a3":"SWE","brk_name":"Sweden","brk_group":null,"abbrev":"Swe.","postal":"S","formal_en":"Kingdom of Sweden","formal_fr":null,"note_adm0":null,"note_brk":null,"name_sort":"Sweden","name_alt":null,"mapcolor7":1,"mapcolor8":4,"mapcolor9":2,"mapcolor13":4,"pop_est":9059651,"gdp_md_est":344300,"pop_year":-99,"lastcensus":-99,"gdp_year":-99,"economy":"2. Developed region: nonG7","income_grp":"1. High income: OECD","wikipedia":-99,"fips_10":null,"iso_a2":"SE","iso_a3":"SWE","iso_n3":752,"un_a3":752,"wb_a2":"SE","wb_a3":"SWE","woe_id":-99,"adm0_a3_is":"SWE","adm0_a3_us":"SWE","adm0_a3_un":-99,"adm0_a3_wb":-99,"continent":"Europe","region_un":"Europe","subregion":"Northern Europe","region_wb":"Europe & Central Asia","name_len":6,"long_len":6,"abbrev_len":4,"tiny":-99,"homepart":1,"filename":"SWE.geojson"},"geometry":{"type":"Polygon","coordinates":[[[22.183173,65.723741],[21.213517,65.026005],[21.369631,64.413588],[19.778876,63.609554],[17.847779,62.7494],[17.119555,61.341166],[17.831346,60.636583],[18.787722,60.081914],[17.869225,58.953766],[16.829185,58.719827],[16.44771,57.041118],[15.879786,56.104302],[14.666681,56.200885],[14.100721,55.407781],[12.942911,55.361737],[12.625101,56.30708],[11.787942,57.441817],[11.027369,58.856149],[11.468272,59.432393],[12.300366,60.117933],[12.631147,61.293572],[11.992064,61.800362],[11.930569,63.128318],[12.579935,64.066219],[13.571916,64.049114],[13.919905,64.445421],[13.55569,64.787028],[15.108411,66.193867],[16.108712,67.302456],[16.768879,68.013937],[17.729182,68.010552],[17.993868,68.567391],[19.87856,68.407194],[20.025269,69.065139],[20.645593,69.106247],[21.978535,68.616846],[23.539473,67.936009],[23.56588,66.396051],[23.903379,66.006927],[22.183173,65.723741]]]}},{"type":"Feature","properties":{"scalerank":1,"featurecla":"Admin-0 country","labelrank":3,"sovereignt":"Ukraine","sov_a3":"UKR","adm0_dif":0,"level":2,"type":"Sovereign country","admin":"Ukraine","adm0_a3":"UKR","geou_dif":0,"geounit":"Ukraine","gu_a3":"UKR","su_dif":0,"subunit":"Ukraine","su_a3":"UKR","brk_diff":0,"name":"Ukraine","name_long":"Ukraine","brk_a3":"UKR","brk_name":"Ukraine","brk_group":null,"abbrev":"Ukr.","postal":"UA","formal_en":"Ukraine","formal_fr":null,"note_adm0":null,"note_brk":null,"name_sort":"Ukraine","name_alt":null,"mapcolor7":5,"mapcolor8":1,"mapcolor9":6,"mapcolor13":3,"pop_est":45700395,"gdp_md_est":339800,"pop_year":-99,"lastcensus":2001,"gdp_year":-99,"economy":"6. Developing region","income_grp":"4. Lower middle income","wikipedia":-99,"fips_10":null,"iso_a2":"UA","iso_a3":"UKR","iso_n3":804,"un_a3":804,"wb_a2":"UA","wb_a3":"UKR","woe_id":-99,"adm0_a3_is":"UKR","adm0_a3_us":"UKR","adm0_a3_un":-99,"adm0_a3_wb":-99,"continent":"Europe","region_un":"Europe","subregion":"Eastern Europe","region_wb":"Europe & Central Asia","name_len":7,"long_len":7,"abbrev_len":4,"tiny":-99,"homepart":1,"filename":"UKR.geojson"},"geometry":{"type":"Polygon","coordinates":[[[31.785998,52.101678],[32.159412,52.061267],[32.412058,52.288695],[32.715761,52.238465],[33.7527,52.335075],[34.391731,51.768882],[34.141978,51.566413],[34.224816,51.255993],[35.022183,51.207572],[35.377924,50.773955],[35.356116,50.577197],[36.626168,50.225591],[37.39346,50.383953],[38.010631,49.915662],[38.594988,49.926462],[40.069058,49.601055],[40.080789,49.30743],[39.674664,48.783818],[39.895632,48.232405],[39.738278,47.898937],[38.770585,47.825608],[38.255112,47.5464],[38.223538,47.10219],[37.425137,47.022221],[36.759855,46.6987],[35.823685,46.645964],[34.962342,46.273197],[35.020788,45.651219],[35.510009,45.409993],[36.529998,45.46999],[36.334713,45.113216],[35.239999,44.939996],[33.882511,44.361479],[33.326421,44.564877],[33.546924,45.034771],[32.454174,45.327466],[32.630804,45.519186],[33.588162,45.851569],[33.298567,46.080598],[31.74414,46.333348],[31.675307,46.706245],[30.748749,46.5831],[30.377609,46.03241],[29.603289,45.293308],[29.149725,45.464925],[28.679779,45.304031],[28.233554,45.488283],[28.485269,45.596907],[28.659987,45.939987],[28.933717,46.25883],[28.862972,46.437889],[29.072107,46.517678],[29.170654,46.379262],[29.759972,46.349988],[30.024659,46.423937],[29.83821,46.525326],[29.908852,46.674361],[29.559674,46.928583],[29.415135,47.346645],[29.050868,47.510227],[29.122698,47.849095],[28.670891,48.118149],[28.259547,48.155562],[27.522537,48.467119],[26.857824,48.368211],[26.619337,48.220726],[26.19745,48.220881],[25.945941,47.987149],[25.207743,47.891056],[24.866317,47.737526],[24.402056,47.981878],[23.760958,47.985598],[23.142236,48.096341],[22.710531,47.882194],[22.64082,48.15024],[22.085608,48.422264],[22.280842,48.825392],[22.558138,49.085738],[22.776419,49.027395],[22.51845,49.476774],[23.426508,50.308506],[23.922757,50.424881],[24.029986,50.705407],[23.527071,51.578454],[24.005078,51.617444],[24.553106,51.888461],[25.327788,51.910656],[26.337959,51.832289],[27.454066,51.592303],[28.241615,51.572227],[28.617613,51.427714],[28.992835,51.602044],[29.254938,51.368234],[30.157364,51.416138],[30.555117,51.319503],[30.619454,51.822806],[30.927549,52.042353],[31.785998,52.101678]]]}}]}